[{"OBJECT_NAME":"STARLINK-5054","OBJECT_ID":"2022-119W","EPOCH":"2026-03-09T22:03:52.281504","MEAN_MOTION":15.08849089,"ECCENTRICITY":0.00014454,"INCLINATION":53.2191,"RA_OF_ASC_NODE":312.8086,"ARG_OF_PERICENTER":103.4201,"MEAN_ANOMALY":256.6952,"EPHEMERIS_TYPE":0,"CLASSIFICATION_TYPE":"U","NORAD_CAT_ID":53906,"ELEMENT_SET_NO":999,"REV_AT_EPOCH":19186,"BSTAR":-0.00023298679,"MEAN_MOTION_DOT":-3.995e-5,"MEAN_MOTION_DDOT":0},{"OBJECT_NAME":"ELECTRON KICK STAGE R\/B","OBJECT_ID":"2023-196B","EPOCH":"2026-03-09T10:54:03.246336","MEAN_MOTION":15.12760744,"ECCENTRICITY":0.00189263,"INCLINATION":42.0179,"RA_OF_ASC_NODE":242.1679,"ARG_OF_PERICENTER":295.0915,"MEAN_ANOMALY":64.7951,"EPHEMERIS_TYPE":0,"CLASSIFICATION_TYPE":"U","NORAD_CAT_ID":58579,"ELEMENT_SET_NO":999,"REV_AT_EPOCH":12282,"BSTAR":0.00048326039,"MEAN_MOTION_DOT":8.466e-5,"MEAN_MOTION_DDOT":0}]
